[{"OBJECT_NAME":"LEMUR-2-FURIAUS","OBJECT_ID":"2017-042R","EPOCH":"2026-03-09T23:04:27.745536","MEAN_MOTION":15.26272951,"ECCENTRICITY":0.00075374,"INCLINATION":97.3753,"RA_OF_ASC_NODE":248.499,"ARG_OF_PERICENTER":55.8686,"MEAN_ANOMALY":304.3266,"EPHEMERIS_TYPE":0,"CLASSIFICATION_TYPE":"U","NORAD_CAT_ID":42840,"ELEMENT_SET_NO":999,"REV_AT_EPOCH":47305,"BSTAR":0.00099966194,"MEAN_MOTION_DOT":0.00025928,"MEAN_MOTION_DDOT":0},{"OBJECT_NAME":"STARLINK-35309","OBJECT_ID":"2025-253E","EPOCH":"2026-03-09T10:45:53.013600","MEAN_MOTION":15.27587607,"ECCENTRICITY":0.00019412,"INCLINATION":43.0018,"RA_OF_ASC_NODE":214.2055,"ARG_OF_PERICENTER":253.3362,"MEAN_ANOMALY":106.7276,"EPHEMERIS_TYPE":0,"CLASSIFICATION_TYPE":"U","NORAD_CAT_ID":66323,"ELEMENT_SET_NO":999,"REV_AT_EPOCH":2020,"BSTAR":0.0010573548,"MEAN_MOTION_DOT":0.00028955,"MEAN_MOTION_DDOT":0}]
